{"RECORDS":[{"CCSDS_OMM_VERS":50787.39,"CREATION_DATE":"2051-12-08T16:47:50.226Z","ORIGINATOR":"Hessel and Sons","OBJECT_NAME":"N7byp\\/YPo","OBJECT_ID":"yEP/18,%R]","CENTER_NAME":"EMeO>2vF}\\","REF_FRAME":6,"REF_FRAME_EPOCH":"2066-10-17T12:32:43.272Z","TIME_SYSTEM":2,"MEAN_ELEMENT_THEORY":2,"COMMENT":"I\\uKb-Zpq(","EPOCH":"2029-09-09T07:00:21.001Z","SEMI_MAJOR_AXIS":56816.4,"MEAN_MOTION":4429.52,"ECCENTRICITY":15109.09,"INCLINATION":99693.73,"RA_OF_ASC_NODE":37267.31,"ARG_OF_PERICENTER":10986.45,"MEAN_ANOMALY":70628.82,"GM":33451.56,"MASS":54849.58,"SOLAR_RAD_AREA":56301.83,"SOLAR_RAD_COEFF":2963.27,"DRAG_AREA":41171.8,"DRAG_COEFF":50992.26,"EPHEMERIS_TYPE":3,"CLASSIFICATION_TYPE":"UG%E#8#%W\"","NORAD_CAT_ID":1253991758,"ELEMENT_SET_NO":3509090745,"REV_AT_EPOCH":23799.4,"BSTAR":31176.78,"MEAN_MOTION_DOT":28292.4,"MEAN_MOTION_DDOT":70515.86,"COV_REF_FRAME":1,"CX_X":74694.97,"CY_X":80225.98,"CY_Y":40966.77,"CZ_X":69548.94,"CZ_Y":95971.88,"CZ_Z":2454.35,"CX_DOT_X":36061.67,"CX_DOT_Y":80956.79,"CX_DOT_Z":83905.93,"CX_DOT_X_DOT":25215.42,"CY_DOT_X":15213.99,"CY_DOT_Y":40604.34,"CY_DOT_Z":92930.45,"CY_DOT_X_DOT":95924.99,"CY_DOT_Y_DOT":20211.19,"CZ_DOT_X":62701.64,"CZ_DOT_Y":75744.78,"CZ_DOT_Z":1376.97,"CZ_DOT_X_DOT":16103.59,"CZ_DOT_Y_DOT":90520.42,"CZ_DOT_Z_DOT":45246.21,"USER_DEFINED_BIP_0044_TYPE":2576438293,"USER_DEFINED_OBJECT_DESIGNATOR":"7:?F!);hm@","USER_DEFINED_EARTH_MODEL":"?yHR\"volLg","USER_DEFINED_EPOCH_TIMESTAMP":51887.68,"USER_DEFINED_MICROSECONDS":46102.48}]}